[{"OBJECT_NAME":"STARLINK-35831","OBJECT_ID":"2025-254AC","EPOCH":"2026-03-09T18:09:17.534016","MEAN_MOTION":15.30197857,"ECCENTRICITY":8.5e-5,"INCLINATION":53.1586,"RA_OF_ASC_NODE":229.4159,"ARG_OF_PERICENTER":101.3463,"MEAN_ANOMALY":258.7633,"EPHEMERIS_TYPE":0,"CLASSIFICATION_TYPE":"U","NORAD_CAT_ID":66374,"ELEMENT_SET_NO":999,"REV_AT_EPOCH":1902,"BSTAR":0.00067359825,"MEAN_MOTION_DOT":0.00019642,"MEAN_MOTION_DDOT":0},{"OBJECT_NAME":"SL-3 R\/B","OBJECT_ID":"1982-079B","EPOCH":"2026-03-09T22:18:18.158976","MEAN_MOTION":15.24805533,"ECCENTRICITY":0.00250364,"INCLINATION":81.1481,"RA_OF_ASC_NODE":192.7939,"ARG_OF_PERICENTER":164.0597,"MEAN_ANOMALY":196.143,"EPHEMERIS_TYPE":0,"CLASSIFICATION_TYPE":"U","NORAD_CAT_ID":13403,"ELEMENT_SET_NO":999,"REV_AT_EPOCH":37773,"BSTAR":0.00032485557,"MEAN_MOTION_DOT":8.157e-5,"MEAN_MOTION_DDOT":0}]
